{
  "type": "FeatureCollection",
  "features": [
    {
      "type": "Feature",
      "properties": {
        "norad_id": 35891,
        "name": "COSMOS 2251 DEB",
        "group": "cosmos-2251-debris",
        "lat": -34.40456160362906,
        "lon": 57.66510341264533,
        "alt_km": 485.9957809554653,
        "timestamp": "2025-12-24T07:45:06.595719+00:00",
        "meta_object_name": "COSMOS 2251 DEB",
        "meta_object_id": "1993-036AUE",
        "meta_epoch": "2025-12-23T13:07:46.294176",
        "meta_mean_motion": 15.34193649,
        "meta_eccentricity": 0.00415965,
        "meta_inclination": 73.9889,
        "meta_ra_of_asc_node": 70.6727,
        "meta_arg_of_pericenter": 199.1804,
        "meta_mean_anomaly": 160.7838,
        "meta_ephemeris_type": 0,
        "meta_classification_type": "U",
        "meta_norad_cat_id": 35891,
        "meta_element_set_no": 999,
        "meta_rev_at_epoch": 67386,
        "meta_bstar": 0.0012658381,
        "meta_mean_motion_dot": 0.00043293,
        "meta_mean_motion_ddot": 0,
        "tle_line1": "1 35891U 93036AUE 25357.54706359  .00043293  00000+0  12658-2 0  9992",
        "tle_line2": "2 35891  73.9889  70.6727 0041596 199.1804 160.7838 15.34193649673866"
      },
      "geometry": {
        "type": "Point",
        "coordinates": [
          57.66510341264533,
          -34.40456160362906
        ]
      }
    },
    {
      "type": "Feature",
      "properties": {
        "norad_id": 35895,
        "name": "COSMOS 2251 DEB",
        "group": "cosmos-2251-debris",
        "lat": 7.135727245720969,
        "lon": 145.51635715040868,
        "alt_km": 936.017862874417,
        "timestamp": "2025-12-24T07:45:06.595729+00:00",
        "meta_object_name": "COSMOS 2251 DEB",
        "meta_object_id": "1993-036AUJ",
        "meta_epoch": "2025-12-22T15:33:07.695936",
        "meta_mean_motion": 14.01570651,
        "meta_eccentricity": 0.01984376,
        "meta_inclination": 74.0474,
        "meta_ra_of_asc_node": 330.4733,
        "meta_arg_of_pericenter": 66.0465,
        "meta_mean_anomaly": 296.1309,
        "meta_ephemeris_type": 0,
        "meta_classification_type": "U",
        "meta_norad_cat_id": 35895,
        "meta_element_set_no": 999,
        "meta_rev_at_epoch": 59151,
        "meta_bstar": 0.0014393062,
        "meta_mean_motion_dot": 2.565e-05,
        "meta_mean_motion_ddot": 0,
        "tle_line1": "1 35895U 93036AUJ 25356.64800574  .00002565  00000+0  14393-2 0  9995",
        "tle_line2": "2 35895  74.0474 330.4733 0198437  66.0465 296.1309 14.01570651591511"
      },
      "geometry": {
        "type": "Point",
        "coordinates": [
          145.51635715040868,
          7.135727245720969
        ]
      }
    },
    {
      "type": "Feature",
      "properties": {
        "norad_id": 35898,
        "name": "COSMOS 2251 DEB",
        "group": "cosmos-2251-debris",
        "lat": -39.110508780027374,
        "lon": -99.46058276821604,
        "alt_km": 593.4437522389289,
        "timestamp": "2025-12-24T07:45:06.595739+00:00",
        "meta_object_name": "COSMOS 2251 DEB",
        "meta_object_id": "1993-036AUM",
        "meta_epoch": "2025-12-23T01:28:13.609632",
        "meta_mean_motion": 14.9486843,
        "meta_eccentricity": 0.00792798,
        "meta_inclination": 73.9918,
        "meta_ra_of_asc_node": 276.5869,
        "meta_arg_of_pericenter": 57.1802,
        "meta_mean_anomaly": 315.6135,
        "meta_ephemeris_type": 0,
        "meta_classification_type": "U",
        "meta_norad_cat_id": 35898,
        "meta_element_set_no": 999,
        "meta_rev_at_epoch": 66964,
        "meta_bstar": 0.00085758423,
        "meta_mean_motion_dot": 9.925e-05,
        "meta_mean_motion_ddot": 0,
        "tle_line1": "1 35898U 93036AUM 25357.06126863  .00009925  00000+0  85758-3 0  9998",
        "tle_line2": "2 35898  73.9918 276.5869 0079279  57.1802 315.6135 14.94868430669644"
      },
      "geometry": {
        "type": "Point",
        "coordinates": [
          -99.46058276821604,
          -39.110508780027374
        ]
      }
    },
    {
      "type": "Feature",
      "properties": {
        "norad_id": 35901,
        "name": "COSMOS 2251 DEB",
        "group": "cosmos-2251-debris",
        "lat": 42.49408796685566,
        "lon": 163.7850565871013,
        "alt_km": 543.4561210653601,
        "timestamp": "2025-12-24T07:45:06.595749+00:00",
        "meta_object_name": "COSMOS 2251 DEB",
        "meta_object_id": "1993-036AUQ",
        "meta_epoch": "2025-12-21T07:33:55.014048",
        "meta_mean_motion": 15.07789315,
        "meta_eccentricity": 0.0007598,
        "meta_inclination": 74.0113,
        "meta_ra_of_asc_node": 5.2093,
        "meta_arg_of_pericenter": 337.8636,
        "meta_mean_anomaly": 36.6976,
        "meta_ephemeris_type": 0,
        "meta_classification_type": "U",
        "meta_norad_cat_id": 35901,
        "meta_element_set_no": 999,
        "meta_rev_at_epoch": 86256,
        "meta_bstar": 0.0027352,
        "meta_mean_motion_dot": 0.00042089,
        "meta_mean_motion_ddot": 0,
        "tle_line1": "1 35901U 93036AUQ 25355.31522007  .00042089  00000+0  27352-2 0  9992",
        "tle_line2": "2 35901  74.0113   5.2093 0007598 337.8636  36.6976 15.07789315862560"
      },
      "geometry": {
        "type": "Point",
        "coordinates": [
          163.7850565871013,
          42.49408796685566
        ]
      }
    },
    {
      "type": "Feature",
      "properties": {
        "norad_id": 35902,
        "name": "COSMOS 2251 DEB",
        "group": "cosmos-2251-debris",
        "lat": -54.64758742522815,
        "lon": -170.33016495628007,
        "alt_km": 741.3258307842316,
        "timestamp": "2025-12-24T07:45:06.595759+00:00",
        "meta_object_name": "COSMOS 2251 DEB",
        "meta_object_id": "1993-036AUR",
        "meta_epoch": "2025-12-22T20:41:03.846048",
        "meta_mean_motion": 14.26951694,
        "meta_eccentricity": 0.0102351,
        "meta_inclination": 73.9816,
        "meta_ra_of_asc_node": 216.2092,
        "meta_arg_of_pericenter": 329.0141,
        "meta_mean_anomaly": 30.4992,
        "meta_ephemeris_type": 0,
        "meta_classification_type": "U",
        "meta_norad_cat_id": 35902,
        "meta_element_set_no": 999,
        "meta_rev_at_epoch": 61274,
        "meta_bstar": 0.0010058,
        "meta_mean_motion_dot": 2.559e-05,
        "meta_mean_motion_ddot": 0,
        "tle_line1": "1 35902U 93036AUR 25356.86185007  .00002559  00000+0  10058-2 0  9992",
        "tle_line2": "2 35902  73.9816 216.2092 0102351 329.0141  30.4992 14.26951694612743"
      },
      "geometry": {
        "type": "Point",
        "coordinates": [
          -170.33016495628007,
          -54.64758742522815
        ]
      }
    },
    {
      "type": "Feature",
      "properties": {
        "norad_id": 35905,
        "name": "COSMOS 2251 DEB",
        "group": "cosmos-2251-debris",
        "lat": 21.40694828506288,
        "lon": -166.25695143226227,
        "alt_km": 598.0145056108777,
        "timestamp": "2025-12-24T07:45:06.595769+00:00",
        "meta_object_name": "COSMOS 2251 DEB",
        "meta_object_id": "1993-036AUU",
        "meta_epoch": "2025-12-20T21:58:14.302848",
        "meta_mean_motion": 14.99122069,
        "meta_eccentricity": 0.00907118,
        "meta_inclination": 74.0303,
        "meta_ra_of_asc_node": 194.2135,
        "meta_arg_of_pericenter": 272.3815,
        "meta_mean_anomaly": 86.6988,
        "meta_ephemeris_type": 0,
        "meta_classification_type": "U",
        "meta_norad_cat_id": 35905,
        "meta_element_set_no": 999,
        "meta_rev_at_epoch": 88705,
        "meta_bstar": 0.00044734031,
        "meta_mean_motion_dot": 5.886e-05,
        "meta_mean_motion_ddot": 0,
        "tle_line1": "1 35905U 93036AUU 25354.91544332  .00005886  00000+0  44734-3 0  9994",
        "tle_line2": "2 35905  74.0303 194.2135 0090711 272.3815  86.6988 14.99122069887058"
      },
      "geometry": {
        "type": "Point",
        "coordinates": [
          -166.25695143226227,
          21.40694828506288
        ]
      }
    },
    {
      "type": "Feature",
      "properties": {
        "norad_id": 35959,
        "name": "COSMOS 2251 DEB",
        "group": "cosmos-2251-debris",
        "lat": -31.51830870471584,
        "lon": -79.25159018551209,
        "alt_km": 771.7271729028507,
        "timestamp": "2025-12-24T07:45:06.595779+00:00",
        "meta_object_name": "COSMOS 2251 DEB",
        "meta_object_id": "1993-036AUZ",
        "meta_epoch": "2025-12-22T02:19:54.921216",
        "meta_mean_motion": 14.34142228,
        "meta_eccentricity": 0.00219687,
        "meta_inclination": 74.0331,
        "meta_ra_of_asc_node": 294.9334,
        "meta_arg_of_pericenter": 12.848,
        "meta_mean_anomaly": 347.3227,
        "meta_ephemeris_type": 0,
        "meta_classification_type": "U",
        "meta_norad_cat_id": 35959,
        "meta_element_set_no": 999,
        "meta_rev_at_epoch": 85062,
        "meta_bstar": 0.0001152914,
        "meta_mean_motion_dot": 2.97e-06,
        "meta_mean_motion_ddot": 0,
        "tle_line1": "1 35959U 93036AUZ 25356.09716344  .00000297  00000+0  11529-3 0  9995",
        "tle_line2": "2 35959  74.0331 294.9334 0021968  12.8480 347.3227 14.34142228850624"
      },
      "geometry": {
        "type": "Point",
        "coordinates": [
          -79.25159018551209,
          -31.51830870471584
        ]
      }
    }
  ]
}